[{"OBJECT_NAME":"GEESAT-2 04","OBJECT_ID":"2024-023D","EPOCH":"2026-03-09T22:58:49.443744","MEAN_MOTION":14.96681304,"ECCENTRICITY":0.00064656,"INCLINATION":49.992,"RA_OF_ASC_NODE":72.838,"ARG_OF_PERICENTER":6.7244,"MEAN_ANOMALY":353.3785,"EPHEMERIS_TYPE":0,"CLASSIFICATION_TYPE":"U","NORAD_CAT_ID":58908,"ELEMENT_SET_NO":999,"REV_AT_EPOCH":11446,"BSTAR":0.0002767609,"MEAN_MOTION_DOT":2.943e-5,"MEAN_MOTION_DDOT":0},{"OBJECT_NAME":"STARLINK-32538","OBJECT_ID":"2024-225H","EPOCH":"2026-03-09T16:51:09.578016","MEAN_MOTION":14.98333906,"ECCENTRICITY":0.00035916,"INCLINATION":70.0024,"RA_OF_ASC_NODE":164.5555,"ARG_OF_PERICENTER":267.032,"MEAN_ANOMALY":93.0428,"EPHEMERIS_TYPE":0,"CLASSIFICATION_TYPE":"U","NORAD_CAT_ID":62170,"ELEMENT_SET_NO":999,"REV_AT_EPOCH":6987,"BSTAR":0.00017707849,"MEAN_MOTION_DOT":2.021e-5,"MEAN_MOTION_DDOT":0}]
